[{"OBJECT_NAME":"TRANSPORTER-10 OBJECT AD","OBJECT_ID":"2024-043AD","EPOCH":"2026-03-09T20:38:52.416960","MEAN_MOTION":15.34189901,"ECCENTRICITY":0.00089841,"INCLINATION":97.547,"RA_OF_ASC_NODE":207.3753,"ARG_OF_PERICENTER":221.4908,"MEAN_ANOMALY":138.5653,"EPHEMERIS_TYPE":0,"CLASSIFICATION_TYPE":"U","NORAD_CAT_ID":59125,"ELEMENT_SET_NO":999,"REV_AT_EPOCH":11202,"BSTAR":0.00036310552,"MEAN_MOTION_DOT":0.00011954,"MEAN_MOTION_DDOT":0},{"OBJECT_NAME":"STARLINK-32128","OBJECT_ID":"2024-131T","EPOCH":"2026-03-09T23:11:15.644256","MEAN_MOTION":15.30192661,"ECCENTRICITY":0.00014539,"INCLINATION":53.1612,"RA_OF_ASC_NODE":50.9539,"ARG_OF_PERICENTER":89.2781,"MEAN_ANOMALY":270.8386,"EPHEMERIS_TYPE":0,"CLASSIFICATION_TYPE":"U","NORAD_CAT_ID":60272,"ELEMENT_SET_NO":999,"REV_AT_EPOCH":9176,"BSTAR":5.4115e-5,"MEAN_MOTION_DOT":1.243e-5,"MEAN_MOTION_DDOT":0}]
